CCSDS_OMM_VERS = 2.0
CREATION_DATE  = 
ORIGINATOR     = 

OBJECT_NAME    = STARLINK-37012
OBJECT_ID      = 2026-053Q
CENTER_NAME    = EARTH
REF_FRAME      = TEME
TIME_SYSTEM    = UTC
MEAN_ELEMENT_THEORY = SGP/SGP4

EPOCH          = 2026-03-29T04:00:01.999584
MEAN_MOTION    = 15.80790050
ECCENTRICITY   = .0001414
INCLINATION    = 97.2837
RA_OF_ASC_NODE = 323.3915
ARG_OF_PERICENTER = 85.8256
MEAN_ANOMALY   = 327.9474

EPHEMERIS_TYPE = 0
CLASSIFICATION_TYPE = U
NORAD_CAT_ID   = 68221
ELEMENT_SET_NO = 999
REV_AT_EPOCH   = 314
BSTAR          = .28262E-3
MEAN_MOTION_DOT = .54266E-3
MEAN_MOTION_DDOT = 0

CCSDS_OMM_VERS = 2.0
CREATION_DATE  = 
ORIGINATOR     = 

OBJECT_NAME    = STARLINK-37110
OBJECT_ID      = 2026-053R
CENTER_NAME    = EARTH
REF_FRAME      = TEME
TIME_SYSTEM    = UTC
MEAN_ELEMENT_THEORY = SGP/SGP4

EPOCH          = 2026-03-29T04:00:01.999584
MEAN_MOTION    = 15.80848770
ECCENTRICITY   = .0001677
INCLINATION    = 97.2846
RA_OF_ASC_NODE = 323.3951
ARG_OF_PERICENTER = 93.2761
MEAN_ANOMALY   = 329.0280

EPHEMERIS_TYPE = 0
CLASSIFICATION_TYPE = U
NORAD_CAT_ID   = 68222
ELEMENT_SET_NO = 999
REV_AT_EPOCH   = 314
BSTAR          = -.33281E-3
MEAN_MOTION_DOT = -.63527E-3
MEAN_MOTION_DDOT = 0

CCSDS_OMM_VERS = 2.0
CREATION_DATE  = 
ORIGINATOR     = 

OBJECT_NAME    = STARLINK-37025
OBJECT_ID      = 2026-053S
CENTER_NAME    = EARTH
REF_FRAME      = TEME
TIME_SYSTEM    = UTC
MEAN_ELEMENT_THEORY = SGP/SGP4

EPOCH          = 2026-03-29T04:00:01.999584
MEAN_MOTION    = 15.80832741
ECCENTRICITY   = .0001408
INCLINATION    = 97.2843
RA_OF_ASC_NODE = 323.3969
ARG_OF_PERICENTER = 100.7261
MEAN_ANOMALY   = 325.8610

EPHEMERIS_TYPE = 0
CLASSIFICATION_TYPE = U
NORAD_CAT_ID   = 68223
ELEMENT_SET_NO = 999
REV_AT_EPOCH   = 314
BSTAR          = -.15207E-3
MEAN_MOTION_DOT = -.29195E-3
MEAN_MOTION_DDOT = 0

CCSDS_OMM_VERS = 2.0
CREATION_DATE  = 
ORIGINATOR     = 

OBJECT_NAME    = STARLINK-36977
OBJECT_ID      = 2026-053T
CENTER_NAME    = EARTH
REF_FRAME      = TEME
TIME_SYSTEM    = UTC
MEAN_ELEMENT_THEORY = SGP/SGP4

EPOCH          = 2026-03-29T04:00:01.999584
MEAN_MOTION    = 15.80869102
ECCENTRICITY   = .0001594
INCLINATION    = 97.2833
RA_OF_ASC_NODE = 323.3974
ARG_OF_PERICENTER = 92.9134
MEAN_ANOMALY   = 337.9640

EPHEMERIS_TYPE = 0
CLASSIFICATION_TYPE = U
NORAD_CAT_ID   = 68224
ELEMENT_SET_NO = 999
REV_AT_EPOCH   = 303
BSTAR          = -.68606E-3
MEAN_MOTION_DOT = -.12994E-2
MEAN_MOTION_DDOT = 0

CCSDS_OMM_VERS = 2.0
CREATION_DATE  = 
ORIGINATOR     = 

OBJECT_NAME    = STARLINK-36960
OBJECT_ID      = 2026-053U
CENTER_NAME    = EARTH
REF_FRAME      = TEME
TIME_SYSTEM    = UTC
MEAN_ELEMENT_THEORY = SGP/SGP4

EPOCH          = 2026-03-29T04:00:01.999584
MEAN_MOTION    = 15.80777796
ECCENTRICITY   = .0001892
INCLINATION    = 97.2824
RA_OF_ASC_NODE = 323.3997
ARG_OF_PERICENTER = 99.7477
MEAN_ANOMALY   = 335.3850

EPHEMERIS_TYPE = 0
CLASSIFICATION_TYPE = U
NORAD_CAT_ID   = 68225
ELEMENT_SET_NO = 999
REV_AT_EPOCH   = 312
BSTAR          = .66498E-3
MEAN_MOTION_DOT = .12891E-2
MEAN_MOTION_DDOT = 0

CCSDS_OMM_VERS = 2.0
CREATION_DATE  = 
ORIGINATOR     = 

OBJECT_NAME    = STARLINK-37038
OBJECT_ID      = 2026-053V
CENTER_NAME    = EARTH
REF_FRAME      = TEME
TIME_SYSTEM    = UTC
MEAN_ELEMENT_THEORY = SGP/SGP4

EPOCH          = 2026-03-29T04:00:01.999584
MEAN_MOTION    = 15.80865667
ECCENTRICITY   = .0001714
INCLINATION    = 97.2825
RA_OF_ASC_NODE = 323.4027
ARG_OF_PERICENTER = 99.5132
MEAN_ANOMALY   = 344.1528

EPHEMERIS_TYPE = 0
CLASSIFICATION_TYPE = U
NORAD_CAT_ID   = 68226
ELEMENT_SET_NO = 999
REV_AT_EPOCH   = 312
BSTAR          = -.44812E-3
MEAN_MOTION_DOT = -.85343E-3
MEAN_MOTION_DDOT = 0

CCSDS_OMM_VERS = 2.0
CREATION_DATE  = 
ORIGINATOR     = 

OBJECT_NAME    = STARLINK-37083
OBJECT_ID      = 2026-053W
CENTER_NAME    = EARTH
REF_FRAME      = TEME
TIME_SYSTEM    = UTC
MEAN_ELEMENT_THEORY = SGP/SGP4

EPOCH          = 2026-03-29T04:00:01.999584
MEAN_MOTION    = 15.80874091
ECCENTRICITY   = .000175
INCLINATION    = 97.2819
RA_OF_ASC_NODE = 323.4010
ARG_OF_PERICENTER = 113.2383
MEAN_ANOMALY   = 326.1609

EPHEMERIS_TYPE = 0
CLASSIFICATION_TYPE = U
NORAD_CAT_ID   = 68227
ELEMENT_SET_NO = 999
REV_AT_EPOCH   = 314
BSTAR          = -.66724E-3
MEAN_MOTION_DOT = -.126461E-2
MEAN_MOTION_DDOT = 0

CCSDS_OMM_VERS = 2.0
CREATION_DATE  = 
ORIGINATOR     = 

OBJECT_NAME    = STARLINK-37050
OBJECT_ID      = 2026-053X
CENTER_NAME    = EARTH
REF_FRAME      = TEME
TIME_SYSTEM    = UTC
MEAN_ELEMENT_THEORY = SGP/SGP4

EPOCH          = 2026-03-29T04:00:01.999584
MEAN_MOTION    = 15.80846509
ECCENTRICITY   = .0000871
INCLINATION    = 97.2826
RA_OF_ASC_NODE = 323.4048
ARG_OF_PERICENTER = 99.7063
MEAN_ANOMALY   = 348.2329

EPHEMERIS_TYPE = 0
CLASSIFICATION_TYPE = U
NORAD_CAT_ID   = 68228
ELEMENT_SET_NO = 999
REV_AT_EPOCH   = 312
BSTAR          = -.19833E-3
MEAN_MOTION_DOT = -.38018E-3
MEAN_MOTION_DDOT = 0

CCSDS_OMM_VERS = 2.0
CREATION_DATE  = 
ORIGINATOR     = 

OBJECT_NAME    = STARLINK-37081
OBJECT_ID      = 2026-053Y
CENTER_NAME    = EARTH
REF_FRAME      = TEME
TIME_SYSTEM    = UTC
MEAN_ELEMENT_THEORY = SGP/SGP4

EPOCH          = 2026-03-29T04:00:01.999584
MEAN_MOTION    = 15.80137849
ECCENTRICITY   = .0001707
INCLINATION    = 97.2819
RA_OF_ASC_NODE = 323.4103
ARG_OF_PERICENTER = 102.0772
MEAN_ANOMALY   = 358.5015

EPHEMERIS_TYPE = 0
CLASSIFICATION_TYPE = U
NORAD_CAT_ID   = 68229
ELEMENT_SET_NO = 999
REV_AT_EPOCH   = 314
BSTAR          = -.11866E-1
MEAN_MOTION_DOT = -.1922466E-1
MEAN_MOTION_DDOT = 0

CCSDS_OMM_VERS = 2.0
CREATION_DATE  = 
ORIGINATOR     = 

OBJECT_NAME    = STARLINK-37100
OBJECT_ID      = 2026-053Z
CENTER_NAME    = EARTH
REF_FRAME      = TEME
TIME_SYSTEM    = UTC
MEAN_ELEMENT_THEORY = SGP/SGP4

EPOCH          = 2026-03-29T04:00:01.999584
MEAN_MOTION    = 15.80831884
ECCENTRICITY   = .0001583
INCLINATION    = 97.2824
RA_OF_ASC_NODE = 323.4068
ARG_OF_PERICENTER = 100.6304
MEAN_ANOMALY   = 351.5856

EPHEMERIS_TYPE = 0
CLASSIFICATION_TYPE = U
NORAD_CAT_ID   = 68230
ELEMENT_SET_NO = 999
REV_AT_EPOCH   = 314
BSTAR          = -.44595E-4
MEAN_MOTION_DOT = -.8682E-4
MEAN_MOTION_DDOT = 0

CCSDS_OMM_VERS = 2.0
CREATION_DATE  = 
ORIGINATOR     = 

OBJECT_NAME    = STARLINK-37104
OBJECT_ID      = 2026-053AA
CENTER_NAME    = EARTH
REF_FRAME      = TEME
TIME_SYSTEM    = UTC
MEAN_ELEMENT_THEORY = SGP/SGP4

EPOCH          = 2026-03-29T04:00:01.999584
MEAN_MOTION    = 15.80843336
ECCENTRICITY   = .0000932
INCLINATION    = 97.2819
RA_OF_ASC_NODE = 323.4082
ARG_OF_PERICENTER = 73.7560
MEAN_ANOMALY   = 22.7517

EPHEMERIS_TYPE = 0
CLASSIFICATION_TYPE = U
NORAD_CAT_ID   = 68231
ELEMENT_SET_NO = 999
REV_AT_EPOCH   = 314
BSTAR          = -.35523E-3
MEAN_MOTION_DOT = -.67741E-3
MEAN_MOTION_DDOT = 0

CCSDS_OMM_VERS = 2.0
CREATION_DATE  = 
ORIGINATOR     = 

OBJECT_NAME    = STARLINK-37027
OBJECT_ID      = 2026-054A
CENTER_NAME    = EARTH
REF_FRAME      = TEME
TIME_SYSTEM    = UTC
MEAN_ELEMENT_THEORY = SGP/SGP4

EPOCH          = 2026-03-29T03:56:02.230080
MEAN_MOTION    = 15.80112288
ECCENTRICITY   = .0002295
INCLINATION    = 53.1591
RA_OF_ASC_NODE = 215.0801
ARG_OF_PERICENTER = 231.5390
MEAN_ANOMALY   = 128.5427

EPHEMERIS_TYPE = 0
CLASSIFICATION_TYPE = U
NORAD_CAT_ID   = 68232
ELEMENT_SET_NO = 999
REV_AT_EPOCH   = 185
BSTAR          = -.53626E-4
MEAN_MOTION_DOT = -.10902E-3
MEAN_MOTION_DDOT = 0

