STARLINK-37012          
1 68221U 26053Q   26088.16668981  .00054266  00000+0  28262-3 0  9999
2 68221  97.2837 323.3915 0001414  85.8256 327.9474 15.80790050  3146
STARLINK-37110          
1 68222U 26053R   26088.16668981 -.00063527  00000+0 -33281-3 0  9999
2 68222  97.2846 323.3951 0001677  93.2761 329.0280 15.80848770  3143
STARLINK-37025          
1 68223U 26053S   26088.16668981 -.00029195  00000+0 -15207-3 0  9991
2 68223  97.2843 323.3969 0001408 100.7261 325.8610 15.80832741  3143
STARLINK-36977          
1 68224U 26053T   26088.16668981 -.00129940  00000+0 -68606-3 0  9992
2 68224  97.2833 323.3974 0001594  92.9134 337.9640 15.80869102  3032
STARLINK-36960          
1 68225U 26053U   26088.16668981  .00128910  00000+0  66498-3 0  9994
2 68225  97.2824 323.3997 0001892  99.7477 335.3850 15.80777796  3126
STARLINK-37038          
1 68226U 26053V   26088.16668981 -.00085343  00000+0 -44812-3 0  9995
2 68226  97.2825 323.4027 0001714  99.5132 344.1528 15.80865667  3127
STARLINK-37083          
1 68227U 26053W   26088.16668981 -.00126461  00000+0 -66724-3 0  9999
2 68227  97.2819 323.4010 0001750 113.2383 326.1609 15.80874091  3148
STARLINK-37050          
1 68228U 26053X   26088.16668981 -.00038018  00000+0 -19833-3 0  9999
2 68228  97.2826 323.4048 0000871  99.7063 348.2329 15.80846509  3129
STARLINK-37081          
1 68229U 26053Y   26088.16668981 -.01922466  00000+0 -11866-1 0  9996
2 68229  97.2819 323.4103 0001707 102.0772 358.5015 15.80137849  3146
STARLINK-37100          
1 68230U 26053Z   26088.16668981 -.00008682  00000+0 -44595-4 0  9990
2 68230  97.2824 323.4068 0001583 100.6304 351.5856 15.80831884  3147
STARLINK-37104          
1 68231U 26053AA  26088.16668981 -.00067741  00000+0 -35523-3 0  9992
2 68231  97.2819 323.4082 0000932  73.7560  22.7517 15.80843336  3145
STARLINK-37027          
1 68232U 26054A   26088.16391470 -.00010902  00000+0 -53626-4 0  9992
2 68232  53.1591 215.0801 0002295 231.5390 128.5427 15.80112288  1854
